ONEWEB-0578             
1 56067U 23043X   25209.27436508 -.00000999  00000+0 -24511-2 0  9992
2 56067  87.9272 308.5970 0001872 102.4449 257.6894 13.21818732115447
ONEWEB-0579             
1 56068U 23043Y   25209.26490822  .00000270  00000+0  62165-3 0  9999
2 56068  87.9274 308.5849 0002235  96.1775 263.9613 13.21827666115456
ONEWEB-0581             
1 56069U 23043Z   25209.55520923 -.00000006  00000+0 -49951-4 0  9996
2 56069  87.9045 293.2984 0002391 107.4131 252.7262 13.16595461116375
ONEWEB-0609             
1 56070U 23043AA  25209.33165693  .00000022  00000+0  24452-4 0  9998
2 56070  87.9086 323.7987 0001867  96.6931 263.4412 13.15549608113855
ONEWEB-0613             
1 56071U 23043AB  25209.32690363  .00000099  00000+0  22943-3 0  9991
2 56071  87.9091 323.8122 0002110  95.7099 264.4272 13.15549678113853
ONEWEB-0630             
1 56072U 23043AC  25209.62636672  .00000116  00000+0  27346-3 0  9990
2 56072  87.9087 323.7289 0002096  91.9817 268.1554 13.15549898113882
ONEWEB-0632             
1 56073U 23043AD  25209.62161409  .00000105  00000+0  24377-3 0  9991
2 56073  87.9088 323.7499 0002113 102.4963 257.6404 13.15550086113885
ONEWEB-0633             
1 56074U 23043AE  25209.61527569  .00000242  00000+0  60984-3 0  9990
2 56074  87.9082 323.7174 0002025  87.0111 273.1251 13.15547555113863
